[{"OBJECT_NAME":"RANGE-A","OBJECT_ID":"2018-099R","EPOCH":"2026-03-09T16:56:29.908608","MEAN_MOTION":15.1245864,"ECCENTRICITY":0.00096737,"INCLINATION":97.4107,"RA_OF_ASC_NODE":114.1927,"ARG_OF_PERICENTER":340.4473,"MEAN_ANOMALY":19.6386,"EPHEMERIS_TYPE":0,"CLASSIFICATION_TYPE":"U","NORAD_CAT_ID":43773,"ELEMENT_SET_NO":999,"REV_AT_EPOCH":39745,"BSTAR":0.00032165687,"MEAN_MOTION_DOT":5.536e-5,"MEAN_MOTION_DDOT":0},{"OBJECT_NAME":"STARLINK-3459","OBJECT_ID":"2022-016AV","EPOCH":"2026-03-09T22:13:54.539616","MEAN_MOTION":15.08836822,"ECCENTRICITY":0.00012682,"INCLINATION":53.2177,"RA_OF_ASC_NODE":308.071,"ARG_OF_PERICENTER":84.3561,"MEAN_ANOMALY":275.7576,"EPHEMERIS_TYPE":0,"CLASSIFICATION_TYPE":"U","NORAD_CAT_ID":51757,"ELEMENT_SET_NO":999,"REV_AT_EPOCH":22374,"BSTAR":7.9981942e-5,"MEAN_MOTION_DOT":9.85e-6,"MEAN_MOTION_DDOT":0}]
